NORAD_CAT_ID,OBJECT_NAME,OBJECT_TYPE,EPOCH,MEAN_MOTION,ECCENTRICITY,INCLINATION,RA_OF_ASC_NODE,ARG_OF_PERICENTER,MEAN_ANOMALY,BSTAR,MEAN_MOTION_DOT,MEAN_MOTION_DDOT,TLE_LINE0,TLE_LINE1,TLE_LINE2,SEMIMAJOR_AXIS,PERIOD,APOGEE,PERIGEE,DECAYED
52136.0,STARLINK-3720,PAYLOAD,2023-05-17 21:02:30,15.0883368,0.0001219,53.2169,358.6603,86.4833,273.6298,8.5807e-05,1.078e-05,0.0,0 STARLINK-3720,1 52136U 22029BA  23137.87674383  .00001078  00000-0  85807-4 0  9992,2 52136  53.2169 358.6603 0001219  86.4833 273.6298 15.08833680 65922,6917.9,95.438,540.608,538.921,0.0
52136.0,STARLINK-3720,PAYLOAD,2023-05-18 01:48:38,15.08880994,0.0001221,53.2171,357.7679,67.2537,292.8584,-0.00043444,-7.203e-05,0.0,0 STARLINK-3720,1 52136U 22029BA  23138.07544983 -.00007203  00000-0 -43444-3 0  9995,2 52136  53.2171 357.7679 0001221  67.2537 292.8584 15.08880994 65953,6917.755,95.435,540.465,538.775,0.0
52136.0,STARLINK-3720,PAYLOAD,2023-05-18 14:31:44,15.08842044,0.0001231,53.2178,355.39,83.6474,276.4659,7.1939e-05,8.57e-06,0.0,0 STARLINK-3720,1 52136U 22029BA  23138.60538005  .00000857  00000-0  71939-4 0  9999,2 52136  53.2178 355.3900 0001231  83.6474 276.4659 15.08842044 66039,6917.874,95.437,540.591,538.888,0.0
52136.0,STARLINK-3720,PAYLOAD,2023-05-18 20:53:16,15.08847342,0.0001264,53.2177,354.2007,84.1585,275.9551,0.00010936,1.453e-05,0.0,0 STARLINK-3720,1 52136U 22029BA  23138.87033529  .00001453  00000-0  10936-3 0  9991,2 52136  53.2177 354.2007 0001264  84.1585 275.9551 15.08847342 66074,6917.858,95.437,540.597,538.849,0.0
52136.0,STARLINK-3720,PAYLOAD,2023-05-19 00:04:03,15.08847926,0.0001275,53.2177,353.6059,84.6596,275.4542,0.00011275,1.507e-05,0.0,0 STARLINK-3720,1 52136U 22029BA  23139.00281448  .00001507  00000-0  11275-3 0  9999,2 52136  53.2177 353.6059 0001275  84.6596 275.4542 15.08847926 66098,6917.856,95.437,540.603,538.839,0.0
52136.0,STARLINK-3720,PAYLOAD,2023-05-19 20:44:04,15.08840279,0.0001103,53.2175,349.7404,87.7488,272.363,3.7733e-05,3.13e-06,0.0,0 STARLINK-3720,1 52136U 22029BA  23139.86394149  .00000313  00000-0  37733-4 0  9998,2 52136  53.2175 349.7404 0001103  87.7488 272.3630 15.08840279 66223,6917.88,95.438,540.508,538.981,0.0
52136.0,STARLINK-3720,PAYLOAD,2023-05-19 23:54:50,15.0884466,0.0001204,53.2164,349.1458,87.4266,272.6864,6.7172e-05,7.81e-06,0.0,0 STARLINK-3720,1 52136U 22029BA  23139.99641792  .00000781  00000-0  67172-4 0  9990,2 52136  53.2164 349.1458 0001204  87.4266 272.6864 15.08844660 66249,6917.866,95.437,540.564,538.898,0.0
52136.0,STARLINK-3720,PAYLOAD,2023-05-20 20:34:50,15.08859409,0.000125,53.2169,345.2786,94.9513,265.1622,0.00015533,2.186e-05,0.0,0 STARLINK-3720,1 52136U 22029BA  23140.85752472  .00002186  00000-0  15533-3 0  9999,2 52136  53.2169 345.2786 0001250  94.9513 265.1622 15.08859409 66374,6917.821,95.436,540.551,538.821,0.0
52136.0,STARLINK-3720,PAYLOAD,2023-05-20 23:45:36,15.08860416,0.0001155,53.2172,344.6833,91.1824,268.93,0.00014827,2.074e-05,0.0,0 STARLINK-3720,1 52136U 22029BA  23140.99000274  .00002074  00000-0  14827-3 0  9991,2 52136  53.2172 344.6833 0001155  91.1824 268.9300 15.08860416 66398,6917.818,95.436,540.482,538.884,0.0
52136.0,STARLINK-3720,PAYLOAD,2023-05-21 06:07:10,15.08836841,0.0001624,53.2173,343.4925,83.3882,276.7295,5.335e-05,5.61e-06,0.0,0 STARLINK-3720,1 52136U 22029BA  23141.25498115  .00000561  00000-0  53350-4 0  9990,2 52136  53.2173 343.4925 0001624  83.3882 276.7295 15.08836841 66436,6917.89,95.438,540.879,538.632,0.0
52136.0,STARLINK-3720,PAYLOAD,2023-05-21 14:04:06,15.08821117,0.0001299,53.2164,342.012,92.7853,267.3288,-1.1406e-07,-2.9e-06,0.0,0 STARLINK-3720,1 52136U 22029BA  23141.58619144 -.00000290  00000-0 -11406-6 0  9992,2 52136  53.2164 342.0120 0001299  92.7853 267.3288 15.08821117 66481,6917.938,95.439,540.702,538.904,0.0
52136.0,STARLINK-3720,PAYLOAD,2023-05-21 15:39:30,15.08819151,0.0001113,53.2168,341.7111,85.4132,274.6988,-0.00013007,-2.356e-05,0.0,0 STARLINK-3720,1 52136U 22029BA  23141.65243945 -.00002356  00000-0 -13007-3 0  9993,2 52136  53.2168 341.7111 0001113  85.4132 274.6988 15.08819151 66499,6917.944,95.439,540.579,539.039,0.0
52136.0,STARLINK-3720,PAYLOAD,2023-05-21 22:01:03,15.08826022,0.000109,53.2168,340.5221,85.1263,274.9854,-7.1189e-05,-1.42e-05,0.0,0 STARLINK-3720,1 52136U 22029BA  23141.91739605 -.00001420  00000-0 -71189-4 0  9992,2 52136  53.2168 340.5221 0001090  85.1263 274.9854 15.08826022 66539,6917.923,95.438,540.542,539.034,0.0
52136.0,STARLINK-3720,PAYLOAD,2023-05-22 05:57:58,15.08832753,0.0001117,53.2168,339.0354,86.1913,273.9207,1.2713e-05,-8.5e-07,0.0,0 STARLINK-3720,1 52136U 22029BA  23142.24859272 -.00000085  00000-0  12713-4 0  9995,2 52136  53.2168 339.0354 0001117  86.1913 273.9207 15.08832753 66586,6917.903,95.438,540.54,538.995,0.0
52136.0,STARLINK-3720,PAYLOAD,2023-05-22 15:30:16,15.08842409,0.0001071,53.2162,337.2505,83.9615,276.1499,6.2086e-07,-2.78e-06,0.0,0 STARLINK-3720,1 52136U 22029BA  23142.64602605 -.00000278  00000-0  62086-6 0  9999,2 52136  53.2162 337.2505 0001071  83.9615 276.1499 15.08842409 66645,6917.873,95.437,540.479,538.997,0.0
52136.0,STARLINK-3720,PAYLOAD,2023-05-23 02:37:59,15.0883355,0.0001027,53.2158,335.1682,92.3441,267.7669,0.00020159,2.921e-05,0.0,0 STARLINK-3720,1 52136U 22029BA  23143.10971179  .00002921  00000-0  20159-3 0  9994,2 52136  53.2158 335.1682 0001027  92.3441 267.7669 15.08833550 66715,6917.9,95.438,540.476,539.055,0.0
52136.0,STARLINK-3720,PAYLOAD,2023-05-23 18:31:49,15.08860543,0.0001031,53.2159,332.195,81.1175,278.9934,0.00080738,0.00012592,0.0,0 STARLINK-3720,1 52136U 22029BA  23143.77210611  .00012592  00000-0  80738-3 0  9998,2 52136  53.2159 332.1950 0001031  81.1175 278.9934 15.08860543 66818,6917.818,95.436,540.396,538.969,0.0
52136.0,STARLINK-3720,PAYLOAD,2023-05-23 21:42:36,15.08856197,0.0001005,53.2158,331.6008,80.0228,280.0877,0.0010904,0.00017116,0.0,0 STARLINK-3720,1 52136U 22029BA  23143.90458616  .00017116  00000-0  10904-2 0  9996,2 52136  53.2158 331.6008 0001005  80.0228 280.0877 15.08856197 66835,6917.831,95.437,540.391,539.001,0.0
52136.0,STARLINK-3720,PAYLOAD,2023-05-24 02:28:45,15.08841537,0.0001206,53.2157,330.7087,66.4317,293.6801,0.00023003,3.375e-05,0.0,0 STARLINK-3720,1 52136U 22029BA  23144.10330819  .00003375  00000-0  23003-3 0  9990,2 52136  53.2157 330.7087 0001206  66.4317 293.6801 15.08841537 66863,6917.876,95.437,540.575,538.906,0.0
52136.0,STARLINK-3720,PAYLOAD,2023-05-24 15:11:50,15.08848457,0.0001015,53.2157,328.329,94.2866,265.8242,0.00040362,6.143e-05,0.0,0 STARLINK-3720,1 52136U 22029BA  23144.63322556  .00006143  00000-0  40362-3 0  9990,2 52136  53.2157 328.3290 0001015  94.2866 265.8242 15.08848457 66945,6917.855,95.437,540.422,539.017,0.0
52136.0,STARLINK-3720,PAYLOAD,2023-05-25 18:13:24,15.08844714,0.0001019,53.2158,323.2737,88.7844,271.3265,0.00041568,6.335e-05,0.0,0 STARLINK-3720,1 52136U 22029BA  23145.75930688  .00006335  00000-0  41568-3 0  9997,2 52136  53.2158 323.2737 0001019  88.7844 271.3265 15.08844714 67113,6917.866,95.437,540.436,539.026,0.0
52136.0,STARLINK-3720,PAYLOAD,2023-05-26 11:42:38,15.08841798,9.24e-05,53.2156,320.0028,84.4661,275.6437,0.00021462,3.13e-05,0.0,0 STARLINK-3720,1 52136U 22029BA  23146.48794801  .00003130  00000-0  21462-3 0  9994,2 52136  53.2156 320.0028 0000924  84.4661 275.6437 15.08841798 67222,6917.875,95.437,540.379,539.101,0.0
52136.0,STARLINK-3720,PAYLOAD,2023-05-26 18:04:11,15.08844263,9.96e-05,53.2164,318.8134,87.7026,272.408,0.00014872,2.08e-05,0.0,0 STARLINK-3720,1 52136U 22029BA  23146.75290683  .00002080  00000-0  14872-3 0  9993,2 52136  53.2164 318.8134 0000996  87.7026 272.4080 15.08844263 67267,6917.867,95.437,540.421,539.043,0.0
52136.0,STARLINK-3720,PAYLOAD,2023-05-26 21:14:57,15.088447,9.99e-05,53.2163,318.2186,87.687,272.4237,0.00014375,2.001e-05,0.0,0 STARLINK-3720,1 52136U 22029BA  23146.88538617  .00002001  00000-0  14375-3 0  9990,2 52136  53.2163 318.2186 0000999  87.6870 272.4237 15.08844700 67288,6917.866,95.437,540.422,539.04,0.0
52136.0,STARLINK-3720,PAYLOAD,2023-05-27 17:54:58,15.08841569,9.94e-05,53.2169,314.3518,97.0599,263.0506,7.9769e-05,9.82e-06,0.0,0 STARLINK-3720,1 52136U 22029BA  23147.74650741  .00000982  00000-0  79769-4 0  9994,2 52136  53.2169 314.3518 0000994  97.0599 263.0506 15.08841569 67418,6917.876,95.437,540.428,539.053,0.0
52136.0,STARLINK-3720,PAYLOAD,2023-05-28 17:45:44,15.08847366,9.43e-05,53.2166,309.8925,95.7939,264.3161,0.00012644,1.726e-05,0.0,0 STARLINK-3720,1 52136U 22029BA  23148.74010319  .00001726  00000-0  12644-3 0  9991,2 52136  53.2166 309.8925 0000943  95.7939 264.3161 15.08847366 67561,6917.858,95.437,540.375,539.071,0.0
52136.0,STARLINK-3720,PAYLOAD,2023-05-29 03:18:04,15.08842563,8.91e-05,53.2162,308.1096,104.2837,255.8255,4.6541e-05,4.53e-06,0.0,0 STARLINK-3720,1 52136U 22029BA  23149.13754736  .00000453  00000-0  46541-4 0  9993,2 52136  53.2162 308.1096 0000891 104.2837 255.8255 15.08842563 67623,6917.873,95.437,540.354,539.121,0.0
52136.0,STARLINK-3720,PAYLOAD,2023-05-29 14:25:46,15.08838334,8.96e-05,53.2165,306.028,94.5048,265.6046,1.0499e-05,-1.21e-06,0.0,0 STARLINK-3720,1 52136U 22029BA  23149.60123265 -.00000121  00000-0  10499-4 0  9998,2 52136  53.2165 306.0280 0000896  94.5048 265.6046 15.08838334 67693,6917.885,95.438,540.37,539.131,0.0
52136.0,STARLINK-3720,PAYLOAD,2023-05-29 19:11:55,15.08841581,9.4e-05,53.2164,305.1357,95.4754,264.6346,8.3776e-05,1.046e-05,0.0,0 STARLINK-3720,1 52136U 22029BA  23149.79994827  .00001046  00000-0  83776-4 0  9992,2 52136  53.2164 305.1357 0000940  95.4754 264.6346 15.08841581 67725,6917.876,95.437,540.391,539.09,0.0
52136.0,STARLINK-3720,PAYLOAD,2023-05-30 12:41:10,15.08843108,0.000117,53.2161,301.8644,101.3164,258.7959,-7.0933e-05,-1.417e-05,0.0,0 STARLINK-3720,1 52136U 22029BA  23150.52859312 -.00001417  00000-0 -70933-4 0  9999,2 52136  53.2161 301.8644 0001170 101.3164 258.7959 15.08843108 67835,6917.871,95.437,540.545,538.926,0.0
